IRIDIUM 171             
1 43929U 19002H   24042.89230246 -.00000084  00000+0 -36950-4 0  9995
2 43929  86.4017 351.6491 0002076  89.0531 271.0903 14.34216794266226
IRIDIUM 170             
1 43930U 19002J   24042.90798599  .00002264  00000+0  35513-3 0  9992
2 43930  86.6146 351.4822 0002330  88.3907 271.7577 14.72253826273277
IRIDIUM 167             
1 43931U 19002K   24042.88595580  .00000527  00000+0  18112-3 0  9991
2 43931  86.4012 351.4551 0002249  88.5342 271.6112 14.34219794266226
IRIDIUM 181             
1 56726U 23068S   24042.95104247  .00000341  00000+0  94840-4 0  9995
2 56726  86.8612  39.0071 0002366 105.3457 254.8006 14.43577874 38928
IRIDIUM 177             
1 56727U 23068T   24042.94538232  .00002983  00000+0  38891-3 0  9997
2 56727  86.1995  15.2777 0002465  92.3254 267.8249 14.80240922 39707
IRIDIUM 174             
1 56728U 23068U   24042.93994007  .00002968  00000+0  38697-3 0  9990
2 56728  86.2002  15.3737 0002384  92.5952 267.5541 14.80241239 39706
IRIDIUM 178             
1 56729U 23068V   24042.93477103  .00002904  00000+0  37862-3 0  9997
2 56729  86.5785  26.8495 0002686  91.8402 268.3127 14.80244853 39707
